ONEWEB-0656             
1 55817U 23029X   24285.87712097  .00000187  00000+0  42881-3 0  9995
2 55817  87.9285  36.4078 0001185  87.1991 272.9278 13.20775017 80193
ONEWEB-0657             
1 55818U 23029Y   24285.86676710  .00000125  00000+0  28027-3 0  9994
2 55818  87.9138  66.9547 0001585  66.2148 293.9151 13.19727787 78016
ONEWEB-0658             
1 55819U 23029Z   24285.86202527  .00000105  00000+0  23007-3 0  9997
2 55819  87.9136  66.8906 0002325  93.3963 266.7436 13.19727704 78701
ONEWEB-0660             
1 55820U 23029AA  24285.84566787 -.00000376  00000+0 -10487-2 0  9997
2 55820  87.8997  51.6418 0002050 109.3298 250.8053 13.14502873 79535
ONEWEB-0661             
1 55821U 23029AB  24285.88055889  .00000311  00000+0  80375-3 0  9999
2 55821  87.8997  51.7028 0001975 112.8461 247.2877 13.14506144 78819
ONEWEB-0662             
1 55822U 23029AC  24285.83933354 -.00000065  00000+0 -20987-3 0  9998
2 55822  87.8995  51.7175 0002005 104.5204 255.6148 13.14505844 78853
ONEWEB-0663             
1 55823U 23029AD  24285.86803160  .00000091  00000+0  19083-3 0  9995
2 55823  87.9285  36.4692 0002169 106.3007 253.8365 13.20804870 80181
ONEWEB-0664             
1 55824U 23029AE  24285.86449063  .00000254  00000+0  59208-3 0  9998
2 55824  87.9283  36.4845 0001658 117.0401 243.0901 13.20773447 80181
